{
  "type": "FeatureCollection",
  "features": [
    {
      "type": "Feature",
      "properties": {
        "norad_id": 37781,
        "name": "HAIYANG-2A",
        "group": "resource",
        "lat": 20.615064008903648,
        "lon": 161.21752162027383,
        "alt_km": 967.2805488377198,
        "timestamp": "2025-12-02T13:52:16.932540+00:00",
        "meta_object_name": "HAIYANG-2A",
        "meta_object_id": "2011-043A",
        "meta_epoch": "2025-12-02T07:52:42.191040",
        "meta_mean_motion": 13.78834037,
        "meta_eccentricity": 0.0001642,
        "meta_inclination": 99.3377,
        "meta_ra_of_asc_node": 337.4232,
        "meta_arg_of_pericenter": 98.217,
        "meta_mean_anomaly": 261.9168,
        "meta_ephemeris_type": 0,
        "meta_classification_type": "U",
        "meta_norad_cat_id": 37781,
        "meta_element_set_no": 999,
        "meta_rev_at_epoch": 71955,
        "meta_bstar": 5.472129e-05,
        "meta_mean_motion_dot": 1.2e-07,
        "meta_mean_motion_ddot": 0,
        "tle_line1": "1 37781U 11043A   25336.32826610  .00000012  00000+0  54721-4 0  9997",
        "tle_line2": "2 37781  99.3377 337.4232 0001642  98.2170 261.9168 13.78834037719554"
      },
      "geometry": {
        "type": "Point",
        "coordinates": [
          161.21752162027383,
          20.615064008903648
        ]
      }
    },
    {
      "type": "Feature",
      "properties": {
        "norad_id": 37791,
        "name": "RASAT",
        "group": "resource",
        "lat": -79.30123091590563,
        "lon": -162.65316996834773,
        "alt_km": 690.2685042821404,
        "timestamp": "2025-12-02T13:52:16.932550+00:00",
        "meta_object_name": "RASAT",
        "meta_object_id": "2011-044D",
        "meta_epoch": "2025-12-02T06:30:57.969792",
        "meta_mean_motion": 14.67885273,
        "meta_eccentricity": 0.00219596,
        "meta_inclination": 98.0657,
        "meta_ra_of_asc_node": 65.6846,
        "meta_arg_of_pericenter": 96.5075,
        "meta_mean_anomaly": 347.8424,
        "meta_ephemeris_type": 0,
        "meta_classification_type": "U",
        "meta_norad_cat_id": 37791,
        "meta_element_set_no": 999,
        "meta_rev_at_epoch": 76429,
        "meta_bstar": 0.00016785198,
        "meta_mean_motion_dot": 9.14e-06,
        "meta_mean_motion_ddot": 0,
        "tle_line1": "1 37791U 11044D   25336.27150428  .00000914  00000+0  16785-3 0  9998",
        "tle_line2": "2 37791  98.0657  65.6846 0021959  96.5075 347.8424 14.67885273764298"
      },
      "geometry": {
        "type": "Point",
        "coordinates": [
          -162.65316996834773,
          -79.30123091590563
        ]
      }
    },
    {
      "type": "Feature",
      "properties": {
        "norad_id": 37841,
        "name": "SRMSAT",
        "group": "resource",
        "lat": 4.626220097701437,
        "lon": -23.4164403258269,
        "alt_km": 844.2728784186793,
        "timestamp": "2025-12-02T13:52:16.932561+00:00",
        "meta_object_name": "SRMSAT",
        "meta_object_id": "2011-058D",
        "meta_epoch": "2025-12-01T21:57:27.777312",
        "meta_mean_motion": 14.11505404,
        "meta_eccentricity": 0.00117535,
        "meta_inclination": 19.9698,
        "meta_ra_of_asc_node": 173.4687,
        "meta_arg_of_pericenter": 193.5378,
        "meta_mean_anomaly": 196.2106,
        "meta_ephemeris_type": 0,
        "meta_classification_type": "U",
        "meta_norad_cat_id": 37841,
        "meta_element_set_no": 999,
        "meta_rev_at_epoch": 72991,
        "meta_bstar": 0.00010220784,
        "meta_mean_motion_dot": 4.53e-06,
        "meta_mean_motion_ddot": 0,
        "tle_line1": "1 37841U 11058D   25335.91490483  .00000453  00000+0  10221-3 0  9994",
        "tle_line2": "2 37841  19.9698 173.4687 0011753 193.5378 196.2106 14.11505404729914"
      },
      "geometry": {
        "type": "Point",
        "coordinates": [
          -23.4164403258269,
          4.626220097701437
        ]
      }
    },
    {
      "type": "Feature",
      "properties": {
        "norad_id": 38012,
        "name": "PLEIADES 1A",
        "group": "resource",
        "lat": 38.71469923760323,
        "lon": 42.87914817519837,
        "alt_km": 694.2143013630657,
        "timestamp": "2025-12-02T13:52:16.932571+00:00",
        "meta_object_name": "PLEIADES 1A",
        "meta_object_id": "2011-076F",
        "meta_epoch": "2025-12-02T07:30:34.064928",
        "meta_mean_motion": 14.58544862,
        "meta_eccentricity": 0.00014247,
        "meta_inclination": 98.1835,
        "meta_ra_of_asc_node": 49.2419,
        "meta_arg_of_pericenter": 81.9907,
        "meta_mean_anomaly": 6.2521,
        "meta_ephemeris_type": 0,
        "meta_classification_type": "U",
        "meta_norad_cat_id": 38012,
        "meta_element_set_no": 999,
        "meta_rev_at_epoch": 74329,
        "meta_bstar": 0.00013720129,
        "meta_mean_motion_dot": 5.92e-06,
        "meta_mean_motion_ddot": 0,
        "tle_line1": "1 38012U 11076F   25336.31289427  .00000592  00000+0  13720-3 0  9995",
        "tle_line2": "2 38012  98.1835  49.2419 0001424  81.9907   6.2521 14.58544862743292"
      },
      "geometry": {
        "type": "Point",
        "coordinates": [
          42.87914817519837,
          38.71469923760323
        ]
      }
    },
    {
      "type": "Feature",
      "properties": {
        "norad_id": 38038,
        "name": "ZIYUAN 1-02C (ZY 1-02C)",
        "group": "resource",
        "lat": -22.22219771054679,
        "lon": 46.25384830839253,
        "alt_km": 775.2160320793155,
        "timestamp": "2025-12-02T13:52:16.932581+00:00",
        "meta_object_name": "ZIYUAN 1-02C (ZY 1-02C)",
        "meta_object_id": "2011-079A",
        "meta_epoch": "2025-12-02T07:42:26.018208",
        "meta_mean_motion": 14.37992924,
        "meta_eccentricity": 0.00067202,
        "meta_inclination": 98.4347,
        "meta_ra_of_asc_node": 42.5263,
        "meta_arg_of_pericenter": 167.3928,
        "meta_mean_anomaly": 281.3991,
        "meta_ephemeris_type": 0,
        "meta_classification_type": "U",
        "meta_norad_cat_id": 38038,
        "meta_element_set_no": 999,
        "meta_rev_at_epoch": 73091,
        "meta_bstar": 0.00024023822,
        "meta_mean_motion_dot": 6.83e-06,
        "meta_mean_motion_ddot": 0,
        "tle_line1": "1 38038U 11079A   25336.32113447  .00000683  00000+0  24024-3 0  9995",
        "tle_line2": "2 38038  98.4347  42.5263 0006720 167.3928 281.3991 14.37992924730915"
      },
      "geometry": {
        "type": "Point",
        "coordinates": [
          46.25384830839253,
          -22.22219771054679
        ]
      }
    },
    {
      "type": "Feature",
      "properties": {
        "norad_id": 38046,
        "name": "ZIYUAN 3-1 (ZY 3-1)",
        "group": "resource",
        "lat": 77.75053816734476,
        "lon": 7.283942046445681,
        "alt_km": 360.22716433092774,
        "timestamp": "2025-12-02T13:52:16.932592+00:00",
        "meta_object_name": "ZIYUAN 3-1 (ZY 3-1)",
        "meta_object_id": "2012-001A",
        "meta_epoch": "2025-12-02T07:23:56.823648",
        "meta_mean_motion": 15.6659663,
        "meta_eccentricity": 0.00022026,
        "meta_inclination": 97.1785,
        "meta_ra_of_asc_node": 42.4964,
        "meta_arg_of_pericenter": 36.2827,
        "meta_mean_anomaly": 323.8583,
        "meta_ephemeris_type": 0,
        "meta_classification_type": "U",
        "meta_norad_cat_id": 38046,
        "meta_element_set_no": 999,
        "meta_rev_at_epoch": 77333,
        "meta_bstar": 0.00066987318,
        "meta_mean_motion_dot": 0.00070345,
        "meta_mean_motion_ddot": 0,
        "tle_line1": "1 38046U 12001A   25336.30829657  .00070345  00000+0  66987-3 0  9991",
        "tle_line2": "2 38046  97.1785  42.4964 0002202  36.2827 323.8583 15.66596630773335"
      },
      "geometry": {
        "type": "Point",
        "coordinates": [
          7.283942046445681,
          77.75053816734476
        ]
      }
    },
    {
      "type": "Feature",
      "properties": {
        "norad_id": 38338,
        "name": "ARIRANG-3 (KOMPSAT-3)",
        "group": "resource",
        "lat": -1.6746157969929638,
        "lon": 110.8462917967411,
        "alt_km": 695.1779549084131,
        "timestamp": "2025-12-02T13:52:16.932602+00:00",
        "meta_object_name": "ARIRANG-3 (KOMPSAT-3)",
        "meta_object_id": "2012-025B",
        "meta_epoch": "2025-12-02T06:28:18.375168",
        "meta_mean_motion": 14.61689392,
        "meta_eccentricity": 0.00060983,
        "meta_inclination": 98.3306,
        "meta_ra_of_asc_node": 290.7812,
        "meta_arg_of_pericenter": 11.5824,
        "meta_mean_anomaly": 348.5516,
        "meta_ephemeris_type": 0,
        "meta_classification_type": "U",
        "meta_norad_cat_id": 38338,
        "meta_element_set_no": 999,
        "meta_rev_at_epoch": 72257,
        "meta_bstar": 0.00017434472,
        "meta_mean_motion_dot": 8.2e-06,
        "meta_mean_motion_ddot": 0,
        "tle_line1": "1 38338U 12025B   25336.26965712  .00000820  00000+0  17434-3 0  9993",
        "tle_line2": "2 38338  98.3306 290.7812 0006098  11.5824 348.5516 14.61689392722573"
      },
      "geometry": {
        "type": "Point",
        "coordinates": [
          110.8462917967411,
          -1.6746157969929638
        ]
      }
    }
  ]
}